latitude,longitude,apId,apMAC,apName,postArea,streetName,friendlyName,friendlyLocale,deviceType,device
52.407959,-1.511131,BH01,D8:84:66:31:7F:24,bh01.ex3865e.cv1,CV1,Broadgate House,Broadgate House (BH01),Broadgate,IoT,IoT
52.407959,-1.511131,BH02,D8:84:66:31:D5:34,bh02.ex3865e.cv1,CV1,Broadgate House,Broadgate House (BH02),Broadgate,IoT,IoT
52.407959,-1.511131,BH03,D8:84:66:31:80:02,bh03.ex3865e.cv1,CV1,Broadgate House,Broadgate House (BH03),Broadgate,IoT,IoT
52.407959,-1.511131,BH04,D8:84:66:31:7F:7E,bh04.ex3865e.cv1,CV1,Broadgate House,Broadgate House (BH04),Broadgate,IoT,IoT
52.407959,-1.511131,BH05,D8:84:66:31:83:12,bh05.ex3865e.cv1,CV1,Broadgate House,Broadgate House (BH05),Broadgate,IoT,IoT
52.408601,-1.513353,CL01,D8:84:66:31:82:28,cl01.ex3865e.cv1,CV1,Central Library,Central Library (CL01),Smithford Way,IoT,IoT
52.408601,-1.513353,CL02,D8:84:66:30:F2:EC,cl02.ex3865e.cv1,CV1,Central Library,Central Library (CL02),Smithford Way,IoT,IoT
52.407851,-1.510184,CLSC01,D8:84:66:31:83:14,clsc01.ex3865e.cv1,CV1,Cathedral Lanes Shopping Centre,Cathedral Lanes Shopping Centre (01),Broadgate,IoT,IoT
52.407851,-1.510184,CLSC02,D8:84:66:31:7F:42,clsc02.ex3865e.cv1,CV1,Cathedral Lanes Shopping Centre,Cathedral Lanes Shopping Centre (02),Broadgate,IoT,IoT
52.407851,-1.510184,CLSC03,D8:84:66:31:82:40,clsc03.ex3865e.cv1,CV1,Cathedral Lanes Shopping Centre,Cathedral Lanes Shopping Centre (03),Broadgate,IoT,IoT
52.407851,-1.510184,CLSC04,D8:84:66:31:D6:E6,clsc04.ex3865e.cv1,CV1,Cathedral Lanes Shopping Centre,Cathedral Lanes Shopping Centre (04),Broadgate,IoT,IoT
52.41007,-1.512817,L10LAK,D8:84:66:31:D4:18,l10lak.ex3865e.cv1,CV1,Corporation Street,Corporation Street / Smithford Way,Smithford Way,IoT,IoT
52.40658,-1.510392,L10LAZ,D8:84:66:31:D6:C8,l10laz.ex3865e.cv1,CV1,Greyfriars Lane,Ford's Hospital,Civic Quarter,IoT,IoT
52.406129,-1.50862,L11LBE,D8:84:66:31:D4:B2,l11lbe.ex3865e.cv1,CV1,Little Park Street,Little Park Street - Citizens Advice,Civic Quarter,IoT,IoT
52.404407,-1.514456,L12LAX,D8:84:66:31:D4:82,l12lax.ex3865e.cv1,CV1,Greyfriars Road,Greyfriars Green Park - Warwick Row,Friargate District,IoT,IoT
52.405093,-1.510132,L13LAQ,D8:84:66:31:D4:4C,l13laq.ex3865e.cv1,CV1,New Union Street,New Union Street - row of estate agents,Warwick Road/New Union Street,IoT,IoT
52.40705,-1.510162,L13LAZ,D8:84:66:31:D5:DA,l13laz.ex3865e.cv1,CV1,Greyfriars Lane,Greyfriars Lane - Broadgate Square Taxi Rank,Broadgate,IoT,IoT
52.409575,-1.513873,L15LAK,D8:84:66:31:82:32,l15lak.ex3865e.cv1,CV1,Corporation Street,Corporation Street - Belgrade Theatre,Corporation Street,IoT,IoT
52.409805,-1.506447,L16LBF,D8:84:66:31:82:26,l16lbf.ex3865e.cv1,CV1,Fairfax Street,Pool Meadow Bus Station - Fairfax Steet Entrance,Pool Meadow Bus Station,IoT,IoT
52.405485,-1.510194,L17LAZ,D8:84:66:31:D5:26,l17laz.ex3865e.cv1,CV1,Greyfriars Lane,Greyfriars Lane - The Squirrel / Telephone Exchange,Warwick Road/New Union Street,IoT,IoT
52.40544,-1.51602,L19LAT,D8:84:66:31:80:F2,l19lat.ex3865e.cv1,CV1,Queen Victoria Road,Queen Victoria Road / Greyfriars Road,Queen Victoria Road,IoT,IoT
52.406743,-1.504056,L1LAC,D8:84:66:31:82:5E,l1lac.ex3865e.cv1,CV1,Gosford Street,Jordan Well / Cox Street - The Phoenix,University Quarter,IoT,IoT
52.407699,-1.506748,L1LKB,D8:84:66:31:80:E4,l1lkb.ex3865e.cv1,CV1,Bayley Lane,Bayley Lane - Herbert Art Gallery and Museum,University Quarter,IoT,IoT
52.402772,-1.513836,L1XGL,D8:84:66:31:D4:42,l1xgl.ex3865e.cv1,CV1,Eaton Road,One Friargate,Friargate District,IoT,IoT
52.404648,-1.508559,L20LBE,D8:84:66:31:80:EC,l20lbe.ex3865e.cv1,CV1,Little Park Street,Little Park Street - Police Station,Civic Quarter,IoT,IoT
52.408987,-1.514696,L21LAK,D8:84:66:31:80:78,l21lak.ex3865e.cv1,CV1,Corporation Street,Corporation Street - near St Johns Church,Corporation Street,IoT,IoT
52.409959,-1.507559,L21LBF,D8:84:66:31:80:1E,l21lbf.ex3865e.cv1,CV1,Fairfax Street,Pool Meadow Bus Station - Priory Place,Pool Meadow Bus Station,IoT,IoT
52.408036,-1.515702,L29LAK,D8:84:66:31:7F:D4,l29lak.ex3865e.cv1,CV1,Queen Victoria Road,Corporation Street - The Town Crier Pub,Corporation Street,IoT,IoT
52.406826,-1.505855,L2LAB,D8:84:66:31:D4:40,l2lab.ex3865e.cv1,CV1,Jordan Well,Jordan Well / Much Park Street - The Ivy,University Quarter,IoT,IoT
52.410539,-1.510389,L2LAJ,D8:84:66:31:82:B6,l2laj.ex3865e.cv1,CV1,Corporation Street,Hales Street - Old Grammar School,Corporation Street,IoT,IoT
52.41051,-1.51136,L2LAK,D8:84:66:31:80:86,l2lak.ex3865e.cv1,CV1,Well Street,Well Street,Corporation Street,IoT,IoT
52.405633,-1.512857,L2LAX,D8:84:66:31:D4:12,l2lax.ex3865e.cv1,CV1,Bull Yard,Bull Yard - The Litten Tree,Bull Yard,IoT,IoT
52.408512,-1.506436,L2LKB,D8:84:66:31:81:42,l2lkb.ex3865e.cv1,CV1,Priory Street,Coventry Cathedral,University Quarter,IoT,IoT
52.404854,-1.514194,L3LAY,D8:84:66:31:82:66,l3lay.ex3865e.cv1,CV1,Greyfriars Road,Greyfriars Road / Warwick Row,Warwick Road/New Union Street,IoT,IoT
52.405333,-1.511323,L4LAQ,D8:84:66:31:81:74,l4laq.ex3865e.cv1,CV1,New Union Street,New Union Street - The Wave,Warwick Road/New Union Street,IoT,IoT
52.405403,-1.513166,L4LAX,D8:84:66:31:D6:D2,l4lax.ex3865e.cv1,CV1,Bull Yard,Warwick Road - United Reformed Church,Warwick Road/New Union Street,IoT,IoT
52.4044,-1.513898,L50LAR,D8:84:66:31:83:DA,l50lar.ex3865e.cv1,CV1,Warwick Road,Warwick Road - Bus Gate,Friargate District,IoT,IoT
52.403563,-1.514192,L55LAR,D8:84:66:30:F9:DA,l55lar.ex3865e.cv1,CV1,Warwick Road,Greyfriars Green - Friars House,Friargate District,IoT,IoT
52.401523,-1.513402,L5XLB,D8:84:66:31:85:A0,l5xlb.ex3865e.cv1,CV1,Station Square,Station Square,Friargate District,IoT,IoT
52.40579,-1.512211,L6LAQ,D8:84:66:31:D6:66,l6laq.ex3865e.cv1,CV1,Bull Yard,Bull Yard - Methodist Central Hall,Warwick Road/New Union Street,IoT,IoT
52.40497,-1.513343,L6LAR,D8:84:66:31:7F:36,l6lar.ex3865e.cv1,CV1,Warwick Road,Warwick Road - United Reformed Church,Warwick Road/New Union Street,IoT,IoT
52.406227,-1.510891,L7LAZ,D8:84:66:31:D6:6A,l7laz.ex3865e.cv1,CV1,Barracks Way,Barracks Way / Greyfriars Lane,Civic Quarter,IoT,IoT
52.406916,-1.515484,L8LAT,D8:84:66:31:81:20,l8lat.ex3865e.cv1,CV1,Queen Victoria Road,Queen Victoria Road - Opposite IKEA,Queen Victoria Road,IoT,IoT
52.410505,-1.508217,L9LAJ,D8:84:66:31:81:6C,l9laj.ex3865e.cv1,CV1,Corporation Street,Pool Meadow Bus Station - Hales Street,Pool Meadow Bus Station,IoT,IoT
52.406142,-1.512363,PS01,D8:84:66:31:80:EE,ps01.ex3865e.cv1,CV1,Precinct Shopping,Hertford Street - Nosh,Bull Yard,IoT,IoT
52.406067,-1.512455,PS02,D8:84:66:31:81:A4,ps02.ex3865e.cv1,CV1,Precinct Shopping,Bull Yard (The Yard),Bull Yard,IoT,IoT
52.406958,-1.507088,UNKNOWN2,D8:84:66:31:80:D2,unknown2.ex3865e.cv1,CV1,Jordan Well,Jordan Well (Drapers Bar),University Quarter,IoT,IoT
52.410038,-1.520071,A4114,A4114,A4114 Between Barras Lane and Ring Road,CV1 3AA,Holyhead Road,A4114 Between Barras Lane and Ring Road,,IoT,IoT
52.406189,-1.478713,A428,A428,A428 Adjacent to Brays Lane Junction,CV3 1HU,Binley Road,A428 Adjacent to Brays Lane Junction,,IoT,IoT
52.411009,-1.482216,A4600,A4600,Adjacent to Ball Hill Junction outside Greggs,CV2 4AY,Ball Hill,Adjacent to Ball Hill Junction outside Greggs,,IoT,IoT
52.416182,-1.510337,B4098,B4098,B4098 Junction with Light Lane next to Barrs Hill School,CV1 4BU,Radford Road,B4098 Junction with Light Lane next to Barrs Hill School,,IoT,IoT
52.409273,-1.526379,B4106,B4106,B4106 Adjacent to Railway Bridge outside Nissan showroom,CV1 3HG,Spon End,B4106 Adjacent to Railway Bridge outside Nissan showroom,,IoT,IoT
52.406179,-1.515381,STCA1,ShopperTrak_10001,,,ST City Arcade,ST City Arcade,City Arcade,ShopperTrak,ShopperTrak
52.406549,-1.511598,STHW1,ShopperTrak_10002,,,ST Hertford Way Entrance,ST Hertford Way Entrance,Hertford Street,ShopperTrak,ShopperTrak
52.406582,-1.513501,STMW1,ShopperTrak_10003,,,ST Market Way,ST Market Way,Market Way,ShopperTrak,
52.408905,-1.512932,STSW1,ShopperTrak_10004,,,ST Smithford Way,ST Smithford Way,Smithford Way,ShopperTrak,
52.408028,-1.51112,STUP1,ShopperTrak_10005,,,ST Upper Precinct.,ST Upper Precinct,Broadgate,ShopperTrak,ShopperTrak
52.40796,-1.51113,BH01,25 7e 0c 49 ae bb ae ac,bh01.ex3865e.cv1,CV1,Broadgate House,Broadgate House (BH01),Broadgate,IoT,IoT
52.40796,-1.51113,BH02,49 af 38 af 9e 1d 1f 3c,bh02.ex3865e.cv1,CV1,Broadgate House,Broadgate House (BH02),Broadgate,IoT,IoT
52.40796,-1.51113,BH03,1f e8 fd e0 46 e6 99 ef,bh03.ex3865e.cv1,CV1,Broadgate House,Broadgate House (BH03),Broadgate,IoT,IoT
52.40796,-1.51113,BH04,5b 2d c7 fa 74 18 51 0f,bh04.ex3865e.cv1,CV1,Broadgate House,Broadgate House (BH04),Broadgate,IoT,IoT
52.40796,-1.51113,BH05,c3 c9 74 a3 7b 5b c5 59,bh05.ex3865e.cv1,CV1,Broadgate House,Broadgate House (BH05),Broadgate,IoT,IoT
52.4086,-1.51335,CL01,b9 16 5b 93 74 6d b9 cc,cl01.ex3865e.cv1,CV1,Central Library,Central Library (CL01),Smithford Way,IoT,IoT
52.4086,-1.51335,CL02,64 b1 c4 ba 3c 48 5f 8e,cl02.ex3865e.cv1,CV1,Central Library,Central Library (CL02),Smithford Way,IoT,IoT
52.40785,-1.51018,CLSC01,1a 86 6b 80 7b ad 05 cb,clsc01.ex3865e.cv1,CV1,Cathedral Lanes Shopping Centre,Cathedral Lanes Shopping Centre (01),Broadgate,IoT,IoT
52.40785,-1.51018,CLSC02,25 82 21 e1 1d bd 44 18,clsc02.ex3865e.cv1,CV1,Cathedral Lanes Shopping Centre,Cathedral Lanes Shopping Centre (02),Broadgate,IoT,IoT
52.40785,-1.51018,CLSC03,b8 ee 3e b3 9d 61 44 58,clsc03.ex3865e.cv1,CV1,Cathedral Lanes Shopping Centre,Cathedral Lanes Shopping Centre (03),Broadgate,IoT,IoT
52.40785,-1.51018,CLSC04,8f 7c b2 c0 5c d8 04 87,clsc04.ex3865e.cv1,CV1,Cathedral Lanes Shopping Centre,Cathedral Lanes Shopping Centre (04),Broadgate,IoT,IoT
52.41007,-1.51282,L10LAK,26 34 50 a5 45 fc ff 20,l10lak.ex3865e.cv1,CV1,Corporation Street,Corporation Street / Smithford Way,Smithford Way,IoT,IoT
52.40658,-1.51039,L10LAZ,2e 0d a1 01 60 8b e9 93,l10laz.ex3865e.cv1,CV1,Greyfriars Lane,Ford's Hospital,Civic Quarter,IoT,IoT
52.40613,-1.50862,L11LBE,56 bd 00 52 bd 8c 39 b2,l11lbe.ex3865e.cv1,CV1,Little Park Street,Little Park Street - Citizens Advice,Civic Quarter,IoT,IoT
52.40441,-1.51446,L12LAX,92 ea ff 1d 1c c6 65 d7,l12lax.ex3865e.cv1,CV1,Greyfriars Road,Greyfriars Green Park - Warwick Row,Friargate District,IoT,IoT
52.40509,-1.51013,L13LAQ,27 7b 48 8e 58 cb 3c 10,l13laq.ex3865e.cv1,CV1,New Union Street,New Union Street - row of estate agents,Warwick Road/New Union Street,IoT,IoT
52.40705,-1.51016,L13LAZ,55 7f 36 aa 21 29 93 9c,l13laz.ex3865e.cv1,CV1,Greyfriars Lane,Greyfriars Lane - Broadgate Square Taxi Rank,Broadgate,IoT,IoT
52.40958,-1.51387,L15LAK,bf 60 58 b7 fe cc ec 2a,l15lak.ex3865e.cv1,CV1,Corporation Street,Corporation Street - Belgrade Theatre,Corporation Street,IoT,IoT
52.40981,-1.50645,L16LBF,27 06 bc 19 48 2c 86 f9,l16lbf.ex3865e.cv1,CV1,Fairfax Street,Pool Meadow Bus Station - Fairfax Steet Entrance,Pool Meadow Bus Station,IoT,IoT
52.40549,-1.51019,L17LAZ,5c cf 5d de 17 8d 03 d8,l17laz.ex3865e.cv1,CV1,Greyfriars Lane,Greyfriars Lane - The Squirrel / Telephone Exchange,Warwick Road/New Union Street,IoT,IoT
52.40544,-1.51602,L19LAT,8c 24 44 e2 c8 47 33 e8,l19lat.ex3865e.cv1,CV1,Queen Victoria Road,Queen Victoria Road / Greyfriars Road,City Arcade,IoT,IoT
52.4077,-1.50675,L1LKB,3d 6e 71 e8 06 e2 dc c4,l1lkb.ex3865e.cv1,CV1,Bayley Lane,Bayley Lane - Herbert Art Gallery and Museum,University Quarter,IoT,IoT
52.40277,-1.51384,L1XGL,cb 50 68 e1 1b 14 a0 40,l1xgl.ex3865e.cv1,CV1,Eaton Road,One Friargate,Friargate District,IoT,IoT
52.40465,-1.50856,L20LBE,12 06 88 34 e1 6f a5 0a,l20lbe.ex3865e.cv1,CV1,Little Park Street,Little Park Street - Police Station,Civic Quarter,IoT,IoT
52.40899,-1.5147,L21LAK,5d c2 61 77 73 6e 8a 2f,l21lak.ex3865e.cv1,CV1,Corporation Street,Corporation Street - near St Johns Church,Corporation Street,IoT,IoT
52.40996,-1.50756,L21LBF,05 d1 4d 83 48 28 26 04,l21lbf.ex3865e.cv1,CV1,Fairfax Street,Pool Meadow Bus Station - Priory Place,Pool Meadow Bus Station,IoT,IoT
52.40804,-1.5157,L29LAK,ed 57 e5 5d 05 2f 0f 7c,l29lak.ex3865e.cv1,CV1,Queen Victoria Road,Corporation Street - The Town Crier Pub,Corporation Street,IoT,IoT
52.41054,-1.51039,L2LAJ,42 98 e8 be c7 1f c2 d9,l2laj.ex3865e.cv1,CV1,Corporation Street,Hales Street - Old Grammar School,Corporation Street,IoT,IoT
52.41051,-1.51136,L2LAK,b2 56 ee 09 05 73 93 dd,l2lak.ex3865e.cv1,CV1,Well Street,Well Street,Corporation Street,IoT,IoT
52.40563,-1.51286,L2LAX,aa 78 48 a9 37 05 7a b0,l2lax.ex3865e.cv1,CV1,Bull Yard,Bull Yard - The Litten Tree,Bull Yard,IoT,IoT
52.40851,-1.50644,L2LKB,84 2b 1c 31 83 c3 99 8c,l2lkb.ex3865e.cv1,CV1,Priory Street,Coventry Cathedral,University Quarter,IoT,IoT
52.40485,-1.51419,L3LAY,3f 96 71 77 21 06 04 62,l3lay.ex3865e.cv1,CV1,Greyfriars Road,Greyfriars Road / Warwick Row,Warwick Road/New Union Street,IoT,IoT
52.4054,-1.51317,L4LAX,2b a7 5e aa 80 60 bf 64,l4lax.ex3865e.cv1,CV1,Bull Yard,Warwick Road - United Reformed Church,Warwick Road/New Union Street,IoT,IoT
52.4044,-1.5139,L50LAR,7c 69 9a 7b f1 7f 70 00,l50lar.ex3865e.cv1,CV1,Warwick Road,Warwick Road - Bus Gate,Friargate District,IoT,IoT
52.40356,-1.51419,L55LAR,39 1e c4 c9 72 19 29 f3,l55lar.ex3865e.cv1,CV1,Warwick Road,Greyfriars Green - Friars House,Friargate District,IoT,IoT
52.40152,-1.5134,L5XLB,c7 d4 e0 78 9a bd 3a 2e,l5xlb.ex3865e.cv1,CV1,Station Square,Station Square,Friargate District,IoT,IoT
52.40579,-1.51221,L6LAQ,43 f4 16 2d 43 5d f4 f1,l6laq.ex3865e.cv1,CV1,Bull Yard,Bull Yard - Methodist Central Hall,Warwick Road/New Union Street,IoT,IoT
52.40497,-1.51334,L6LAR,03 bd 11 a8 7d 1b c7 db,l6lar.ex3865e.cv1,CV1,Warwick Road,Warwick Road - United Reformed Church,Warwick Road/New Union Street,IoT,IoT
52.40623,-1.51089,L7LAZ,48 75 85 b2 8d ec c6 54,l7laz.ex3865e.cv1,CV1,Barracks Way,Barracks Way / Greyfriars Lane,Civic Quarter,IoT,IoT
52.41051,-1.50822,L9LAJ,ef 1c 6f c6 c5 59 4e bd,l9laj.ex3865e.cv1,CV1,Corporation Street,Pool Meadow Bus Station - Hales Street,Pool Meadow Bus Station,IoT,IoT
52.40614,-1.51236,PS01,17 04 ce 57 1d d2 ba 8b,ps01.ex3865e.cv1,CV1,Precinct Shopping,Hertford Street - Nosh,Bull Yard,IoT,IoT
52.40607,-1.51246,PS02,d1 88 07 a4 41 76 d1 28,ps02.ex3865e.cv1,CV1,Precinct Shopping,Bull Yard (The Yard),Bull Yard,IoT,IoT
52.40696,-1.50709,UNKNOWN2,17 22 0f 01 da c2 02 17,unknown2.ex3865e.cv1,CV1,Jordan Well,Jordan Well (Drapers Bar),University Quarter,IoT,IoT
